{"type": "FeatureCollection", "features": [ {"type": "Feature", "properties": {"norad_id": 33825, "name": "COSMOS 2251 DEB", "group": "cosmos-2251-debris", "lat": -27.327936741195877, "lon": -5.7875434546659195, "alt_km": 607.1300242358793, "timestamp": "2025-12-25T14:48:25.165265+00:00", "meta": {"OBJECT_NAME": "COSMOS 2251 DEB", "OBJECT_ID": "1993-036BS", "EPOCH": "2025-12-24T22:48:14.857344", "MEAN_MOTION": 14.69882071, "ECCENTRICITY": 0.00851047, "INCLINATION": 73.9851, "RA_OF_ASC_NODE": 4.0441, "ARG_OF_PERICENTER": 328.2698, "MEAN_ANOMALY": 76.3252, "EPHEMERIS_TYPE": 0, "CLASSIFICATION_TYPE": "U", "NORAD_CAT_ID": 33825, "ELEMENT_SET_NO": 999, "REV_AT_EPOCH": 89059, "BSTAR": 0.0011143871, "MEAN_MOTION_DOT": 7.02e-05, "MEAN_MOTION_DDOT": 0}, "tle": {"line1": "1 33825U 93036BS  25358.95017196  .00007020  00000+0  11144-2 0  9994", "line2": "2 33825  73.9851   4.0441 0085104 328.2698  76.3252 14.69882071890597"}}, "geometry": {"type": "Point", "coordinates": [-5.7875434546659195, -27.327936741195877]}}, {"type": "Feature", "properties": {"norad_id": 33826, "name": "COSMOS 2251 DEB", "group": "cosmos-2251-debris", "lat": 68.31855601201062, "lon": 159.72080478383924, "alt_km": 667.233371144107, "timestamp": "2025-12-25T14:48:25.165275+00:00", "meta": {"OBJECT_NAME": "COSMOS 2251 DEB", "OBJECT_ID": "1993-036BT", "EPOCH": "2025-12-25T06:25:50.407392", "MEAN_MOTION": 14.51774716, "ECCENTRICITY": 0.00825159, "INCLINATION": 74.064, "RA_OF_ASC_NODE": 26.3216, "ARG_OF_PERICENTER": 66.4647, "MEAN_ANOMALY": 14.4654, "EPHEMERIS_TYPE": 0, "CLASSIFICATION_TYPE": "U", "NORAD_CAT_ID": 33826, "ELEMENT_SET_NO": 999, "REV_AT_EPOCH": 87951, "BSTAR": 0.00047550154, "MEAN_MOTION_DOT": 1.97e-05, "MEAN_MOTION_DDOT": 0}, "tle": {"line1": "1 33826U 93036BT  25359.26794453  .00001970  00000+0  47550-3 0  9997", "line2": "2 33826  74.0640  26.3216 0082515  66.4647  14.4654 14.51774716879516"}}, "geometry": {"type": "Point", "coordinates": [159.72080478383924, 68.31855601201062]}}, {"type": "Feature", "properties": {"norad_id": 33828, "name": "COSMOS 2251 DEB", "group": "cosmos-2251-debris", "lat": 17.71854568034203, "lon": -140.61118313389554, "alt_km": 745.3884628431697, "timestamp": "2025-12-25T14:48:25.165285+00:00", "meta": {"OBJECT_NAME": "COSMOS 2251 DEB", "OBJECT_ID": "1993-036BV", "EPOCH": "2025-12-25T00:17:48.836256", "MEAN_MOTION": 14.44366636, "ECCENTRICITY": 0.00295193, "INCLINATION": 74.045, "RA_OF_ASC_NODE": 215.2685, "ARG_OF_PERICENTER": 286.3206, "MEAN_ANOMALY": 189.4919, "EPHEMERIS_TYPE": 0, "CLASSIFICATION_TYPE": "U", "NORAD_CAT_ID": 33828, "ELEMENT_SET_NO": 999, "REV_AT_EPOCH": 88490, "BSTAR": 0.00037982137, "MEAN_MOTION_DOT": 1.288e-05, "MEAN_MOTION_DDOT": 0}, "tle": {"line1": "1 33828U 93036BV  25359.01237079  .00001288  00000+0  37982-3 0  9998", "line2": "2 33828  74.0450 215.2685 0029519 286.3206 189.4919 14.44366636884901"}}, "geometry": {"type": "Point", "coordinates": [-140.61118313389554, 17.71854568034203]}}, {"type": "Feature", "properties": {"norad_id": 33830, "name": "COSMOS 2251 DEB", "group": "cosmos-2251-debris", "lat": -34.7526953290399, "lon": -166.3424117991212, "alt_km": 614.6271149940458, "timestamp": "2025-12-25T14:48:25.165294+00:00", "meta": {"OBJECT_NAME": "COSMOS 2251 DEB", "OBJECT_ID": "1993-036BX", "EPOCH": "2025-12-25T00:51:34.583616", "MEAN_MOTION": 14.7702343, "ECCENTRICITY": 0.00427525, "INCLINATION": 74.0307, "RA_OF_ASC_NODE": 206.2562, "ARG_OF_PERICENTER": 323.8791, "MEAN_ANOMALY": 151.0365, "EPHEMERIS_TYPE": 0, "CLASSIFICATION_TYPE": "U", "NORAD_CAT_ID": 33830, "ELEMENT_SET_NO": 999, "REV_AT_EPOCH": 89653, "BSTAR": 0.00076402096, "MEAN_MOTION_DOT": 5.439e-05, "MEAN_MOTION_DDOT": 0}, "tle": {"line1": "1 33830U 93036BX  25359.03581694  .00005439  00000+0  76402-3 0  9990", "line2": "2 33830  74.0307 206.2562 0042752 323.8791 151.0365 14.77023430896539"}}, "geometry": {"type": "Point", "coordinates": [-166.3424117991212, -34.7526953290399]}}, {"type": "Feature", "properties": {"norad_id": 33832, "name": "COSMOS 2251 DEB", "group": "cosmos-2251-debris", "lat": -17.719060033257577, "lon": -179.8393907443818, "alt_km": 705.6014566160147, "timestamp": "2025-12-25T14:48:25.165303+00:00", "meta": {"OBJECT_NAME": "COSMOS 2251 DEB", "OBJECT_ID": "1993-036BZ", "EPOCH": "2025-12-24T23:08:33.802368", "MEAN_MOTION": 14.60787327, "ECCENTRICITY": 0.00240333, "INCLINATION": 74.0528, "RA_OF_ASC_NODE": 186.6476, "ARG_OF_PERICENTER": 215.359, "MEAN_ANOMALY": 295.1614, "EPHEMERIS_TYPE": 0, "CLASSIFICATION_TYPE": "U", "NORAD_CAT_ID": 33832, "ELEMENT_SET_NO": 999, "REV_AT_EPOCH": 88603, "BSTAR": 0.0014396353, "MEAN_MOTION_DOT": 7.035e-05, "MEAN_MOTION_DDOT": 0}, "tle": {"line1": "1 33832U 93036BZ  25358.96428012  .00007035  00000+0  14396-2 0  9994", "line2": "2 33832  74.0528 186.6476 0024033 215.3590 295.1614 14.60787327886030"}}, "geometry": {"type": "Point", "coordinates": [-179.8393907443818, -17.719060033257577]}}, {"type": "Feature", "properties": {"norad_id": 33835, "name": "COSMOS 2251 DEB", "group": "cosmos-2251-debris", "lat": -65.3602623174143, "lon": -64.97057984549949, "alt_km": 713.8926179723176, "timestamp": "2025-12-25T14:48:25.165313+00:00", "meta": {"OBJECT_NAME": "COSMOS 2251 DEB", "OBJECT_ID": "1993-036CC", "EPOCH": "2025-12-25T07:22:40.924704", "MEAN_MOTION": 14.62366474, "ECCENTRICITY": 0.00537363, "INCLINATION": 74.0572, "RA_OF_ASC_NODE": 77.0698, "ARG_OF_PERICENTER": 126.8829, "MEAN_ANOMALY": 294.6319, "EPHEMERIS_TYPE": 0, "CLASSIFICATION_TYPE": "U", "NORAD_CAT_ID": 33835, "ELEMENT_SET_NO": 999, "REV_AT_EPOCH": 88973, "BSTAR": 0.00091101162, "MEAN_MOTION_DOT": 4.674e-05, "MEAN_MOTION_DDOT": 0}, "tle": {"line1": "1 33835U 93036CC  25359.30741811  .00004674  00000+0  91101-3 0  9997", "line2": "2 33835  74.0572  77.0698 0053736 126.8829 294.6319 14.62366474889738"}}, "geometry": {"type": "Point", "coordinates": [-64.97057984549949, -65.3602623174143]}}, {"type": "Feature", "properties": {"norad_id": 33836, "name": "COSMOS 2251 DEB", "group": "cosmos-2251-debris", "lat": 0.46917833170852513, "lon": -126.32728253851994, "alt_km": 630.0049492869875, "timestamp": "2025-12-25T14:48:25.165322+00:00", "meta": {"OBJECT_NAME": "COSMOS 2251 DEB", "OBJECT_ID": "1993-036CD", "EPOCH": "2025-12-24T16:13:46.720416", "MEAN_MOTION": 14.79813412, "ECCENTRICITY": 0.00228625, "INCLINATION": 73.9959, "RA_OF_ASC_NODE": 235.3942, "ARG_OF_PERICENTER": 84.0042, "MEAN_ANOMALY": 307.3858, "EPHEMERIS_TYPE": 0, "CLASSIFICATION_TYPE": "U", "NORAD_CAT_ID": 33836, "ELEMENT_SET_NO": 999, "REV_AT_EPOCH": 64265, "BSTAR": 0.0011319562, "MEAN_MOTION_DOT": 8.54e-05, "MEAN_MOTION_DDOT": 0}, "tle": {"line1": "1 33836U 93036CD  25358.67623519  .00008540  00000+0  11320-2 0  9991", "line2": "2 33836  73.9959 235.3942 0022862  84.0042 307.3858 14.79813412642650"}}, "geometry": {"type": "Point", "coordinates": [-126.32728253851994, 0.46917833170852513]}}, {"type": "Feature", "properties": {"norad_id": 33837, "name": "COSMOS 2251 DEB", "group": "cosmos-2251-debris", "lat": 68.88991498898638, "lon": 79.30842610167595, "alt_km": 741.6100157400269, "timestamp": "2025-12-25T14:48:25.165332+00:00", "meta": {"OBJECT_NAME": "COSMOS 2251 DEB", "OBJECT_ID": "1993-036CE", "EPOCH": "2025-12-25T02:52:14.659104", "MEAN_MOTION": 14.50726372, "ECCENTRICITY": 0.00358788, "INCLINATION": 74.0123, "RA_OF_ASC_NODE": 32.2899, "ARG_OF_PERICENTER": 252.0503, "MEAN_ANOMALY": 107.6745, "EPHEMERIS_TYPE": 0, "CLASSIFICATION_TYPE": "U", "NORAD_CAT_ID": 33837, "ELEMENT_SET_NO": 999, "REV_AT_EPOCH": 88975, "BSTAR": 0.00024794439, "MEAN_MOTION_DOT": 9.54e-06, "MEAN_MOTION_DDOT": 0}, "tle": {"line1": "1 33837U 93036CE  25359.11961411  .00000954  00000+0  24794-3 0  9999", "line2": "2 33837  74.0123  32.2899 0035878 252.0503 107.6745 14.50726372889758"}}, "geometry": {"type": "Point", "coordinates": [79.30842610167595, 68.88991498898638]}}, {"type": "Feature", "properties": {"norad_id": 33838, "name": "COSMOS 2251 DEB", "group": "cosmos-2251-debris", "lat": -19.59616941387491, "lon": -48.45300598662685, "alt_km": 721.9275943243238, "timestamp": "2025-12-25T14:48:25.165341+00:00", "meta": {"OBJECT_NAME": "COSMOS 2251 DEB", "OBJECT_ID": "1993-036CF", "EPOCH": "2025-12-24T18:32:42.984672", "MEAN_MOTION": 14.48398949, "ECCENTRICITY": 0.00274744, "INCLINATION": 74.0366, "RA_OF_ASC_NODE": 127.2787, "ARG_OF_PERICENTER": 247.5321, "MEAN_ANOMALY": 232.7262, "EPHEMERIS_TYPE": 0, "CLASSIFICATION_TYPE": "U", "NORAD_CAT_ID": 33838, "ELEMENT_SET_NO": 999, "REV_AT_EPOCH": 88743, "BSTAR": 0.00041849362, "MEAN_MOTION_DOT": 1.547e-05, "MEAN_MOTION_DDOT": 0}, "tle": {"line1": "1 33838U 93036CF  25358.77271973  .00001547  00000+0  41849-3 0  9997", "line2": "2 33838  74.0366 127.2787 0027474 247.5321 232.7262 14.48398949887438"}}, "geometry": {"type": "Point", "coordinates": [-48.45300598662685, -19.59616941387491]}}, {"type": "Feature", "properties": {"norad_id": 33839, "name": "COSMOS 2251 DEB", "group": "cosmos-2251-debris", "lat": 28.754862029049445, "lon": -7.299778342755051, "alt_km": 723.7483845141851, "timestamp": "2025-12-25T14:48:25.165350+00:00", "meta": {"OBJECT_NAME": "COSMOS 2251 DEB", "OBJECT_ID": "1993-036CG", "EPOCH": "2025-12-23T19:33:34.360128", "MEAN_MOTION": 14.64445826, "ECCENTRICITY": 0.00853576, "INCLINATION": 74.0374, "RA_OF_ASC_NODE": 185.1983, "ARG_OF_PERICENTER": 294.7494, "MEAN_ANOMALY": 79.6279, "EPHEMERIS_TYPE": 0, "CLASSIFICATION_TYPE": "U", "NORAD_CAT_ID": 33839, "ELEMENT_SET_NO": 999, "REV_AT_EPOCH": 89742, "BSTAR": 0.00019226296, "MEAN_MOTION_DOT": 1.039e-05, "MEAN_MOTION_DDOT": 0}, "tle": {"line1": "1 33839U 93036CG  25357.81498102  .00001039  00000+0  19226-3 0  9997", "line2": "2 33839  74.0374 185.1983 0085357 294.7494  79.6279 14.64445826897429"}}, "geometry": {"type": "Point", "coordinates": [-7.299778342755051, 28.754862029049445]}}]}